KUIPER-00133            
1 65764U 25217C   25361.44928889 -.00001253  00000+0 -13481-3 0  9996
2 65764  51.9043  12.5454 0012013  79.7202 280.5115 14.79928859 14040
KUIPER-00139            
1 65765U 25217D   25361.32004138  .00010580  00000+0  82001-3 0  9991
2 65765  51.8875   5.2007 0008761  70.0377 290.1537 15.01864977 14139
KUIPER-00142            
1 65766U 25217E   25362.00002315 -.01121760  00000+0 -90579-1 0  9996
2 65766  51.8885 353.9357 0002605  88.8138  63.5095 15.02539101  4684
KUIPER-00145            
1 65767U 25217F   25362.00002315 -.00988515  00000+0 -96860-1 0  9994
2 65767  51.9204 355.8428 0007774  72.7612  91.4035 14.94714654  5607
KUIPER-00147            
1 65768U 25217G   25362.00002315 -.00968150  00000+0 -96357-1 0  9999
2 65768  51.9099 358.2817 0011305  72.6365 312.5254 14.94004317  5358
KUIPER-00148            
1 65769U 25217H   25361.50783099  .00019023  00000+0  12147-2 0  9999
2 65769  51.8791 359.0764 0010172  94.3709 265.8428 15.08637499 14230
KUIPER-00150            
1 65770U 25217J   25362.00002315  .00028727  00000+0  37818-2 0  9995
2 65770  51.9024   7.6081 0000661 137.2278 264.7517 14.79924399  5748
KUIPER-00151            
1 65771U 25217K   25362.00002315  .00007534  00000+0  95556-3 0  9993
2 65771  51.9024   0.1659 0001323 103.5478 223.6632 14.82531734  5206
